[{"OBJECT_NAME":"ONEWEB-0380","OBJECT_ID":"2021-090AD","EPOCH":"2026-03-09T17:07:25.041792","MEAN_MOTION":13.1972537,"ECCENTRICITY":0.00016776,"INCLINATION":87.923,"RA_OF_ASC_NODE":324.794,"ARG_OF_PERICENTER":73.3398,"MEAN_ANOMALY":286.7919,"EPHEMERIS_TYPE":0,"CLASSIFICATION_TYPE":"U","NORAD_CAT_ID":49306,"ELEMENT_SET_NO":999,"REV_AT_EPOCH":21330,"BSTAR":-0.00045914207,"MEAN_MOTION_DOT":-1.71e-6,"MEAN_MOTION_DDOT":0},{"OBJECT_NAME":"SL-8 R\/B","OBJECT_ID":"1968-106B","EPOCH":"2026-03-09T16:20:09.900096","MEAN_MOTION":13.19131001,"ECCENTRICITY":0.00341644,"INCLINATION":74.0517,"RA_OF_ASC_NODE":137.3134,"ARG_OF_PERICENTER":143.4036,"MEAN_ANOMALY":333.6648,"EPHEMERIS_TYPE":0,"CLASSIFICATION_TYPE":"U","NORAD_CAT_ID":3577,"ELEMENT_SET_NO":999,"REV_AT_EPOCH":75627,"BSTAR":6.8339382e-5,"MEAN_MOTION_DOT":8.0e-8,"MEAN_MOTION_DDOT":0}]
